[
    {
        "Altitude(m)": 624790.8125460476,
        "Argument of Periapsis(deg)": 0.0,
        "Eccentricity": 0.0,
        "Inclination(deg)": 60.0,
        "Latitude(deg)": -59.147168596755456,
        "Longitude(deg)": -158.9655511838658,
        "Mean Anomaly(deg)": 278.1818,
        "RAAN(deg)": 15.0,
        "Satellite Name": "Test1 83",
        "Satellite Number": 83,
        "Semi-Major Axis(m)": 6980739.136638005,
        "Time(s)": 0
    },
    {
        "Altitude(m)": 624737.4682705196,
        "Argument of Periapsis(deg)": 0.00010418945913296404,
        "Eccentricity": 0.0,
        "Inclination(deg)": 60.0,
        "Latitude(deg)": -58.99462557216759,
        "Longitude(deg)": -157.8460464548644,
        "Mean Anomaly(deg)": 278.8019061454618,
        "RAAN(deg)": 14.999579950860259,
        "Satellite Name": "Test1 83",
        "Satellite Number": 83,
        "Semi-Major Axis(m)": 6980739.136638005,
        "Time(s)": 10
    },
    {
        "Altitude(m)": 624680.3403970269,
        "Argument of Periapsis(deg)": 0.0002083789182659281,
        "Eccentricity": 0.0,
        "Inclination(deg)": 60.0,
        "Latitude(deg)": -58.831770914061565,
        "Longitude(deg)": -156.73709403064,
        "Mean Anomaly(deg)": 279.42201229092365,
        "RAAN(deg)": 14.999159901720514,
        "Satellite Name": "Test1 83",
        "Satellite Number": 83,
        "Semi-Major Axis(m)": 6980739.136638005,
        "Time(s)": 20
    },
    {
        "Altitude(m)": 624619.4513906656,
        "Argument of Periapsis(deg)": 0.00031256837739889213,
        "Eccentricity": 0.0,
        "Inclination(deg)": 60.0,
        "Latitude(deg)": -58.658765258174626,
        "Longitude(deg)": -155.63920199454165,
        "Mean Anomaly(deg)": 280.0421184363855,
        "RAAN(deg)": 14.99873985258077,
        "Satellite Name": "Test1 83",
        "Satellite Number": 83,
        "Semi-Major Axis(m)": 6980739.136638005,
        "Time(s)": 30
    },
    {
        "Altitude(m)": 624554.825193605,
        "Argument of Periapsis(deg)": 0.0004167578365318562,
        "Eccentricity": 0.0,
        "Inclination(deg)": 60.0,
        "Latitude(deg)": -58.47577562488372,
        "Longitude(deg)": -154.55283832672995,
        "Mean Anomaly(deg)": 280.6622245818473,
        "RAAN(deg)": 14.998319803441028,
        "Satellite Name": "Test1 83",
        "Satellite Number": 83,
        "Semi-Major Axis(m)": 6980739.136638005,
        "Time(s)": 40
    },
    {
        "Altitude(m)": 624486.4872149964,
        "Argument of Periapsis(deg)": 0.0005209472956648203,
        "Eccentricity": 0.0,
        "Inclination(deg)": 60.0,
        "Latitude(deg)": -58.28297471661996,
        "Longitude(deg)": -153.47843166684683,
        "Mean Anomaly(deg)": 281.2823307273092,
        "RAAN(deg)": 14.997899754301287,
        "Satellite Name": "Test1 83",
        "Satellite Number": 83,
        "Semi-Major Axis(m)": 6980739.136638005,
        "Time(s)": 50
    },
    {
        "Altitude(m)": 624414.4643202542,
        "Argument of Periapsis(deg)": 0.0006251367547977843,
        "Eccentricity": 0.0,
        "Inclination(deg)": 60.0,
        "Latitude(deg)": -58.08054022124664,
        "Longitude(deg)": -152.41637084827988,
        "Mean Anomaly(deg)": 281.902436872771,
        "RAAN(deg)": 14.997479705161544,
        "Satellite Name": "Test1 83",
        "Satellite Number": 83,
        "Semi-Major Axis(m)": 6980739.136638005,
        "Time(s)": 60
    },
    {
        "Altitude(m)": 624338.784819717,
        "Argument of Periapsis(deg)": 0.0007293262139307483,
        "Eccentricity": 0.0,
        "Inclination(deg)": 60.0,
        "Latitude(deg)": -57.86865412666624,
        "Longitude(deg)": -151.36700469736513,
        "Mean Anomaly(deg)": 282.5225430182328,
        "RAAN(deg)": 14.997059656021802,
        "Satellite Name": "Test1 83",
        "Satellite Number": 83,
        "Semi-Major Axis(m)": 6980739.136638005,
        "Time(s)": 70
    },
    {
        "Altitude(m)": 624259.4784566999,
        "Argument of Periapsis(deg)": 0.0008335156730637124,
        "Eccentricity": 0.0,
        "Inclination(deg)": 60.0,
        "Latitude(deg)": -57.64750205140289,
        "Longitude(deg)": -150.33064358875052,
        "Mean Anomaly(deg)": 283.1426491636946,
        "RAAN(deg)": 14.996639606882056,
        "Satellite Name": "Test1 83",
        "Satellite Number": 83,
        "Semi-Major Axis(m)": 6980739.136638005,
        "Time(s)": 80
    },
    {
        "Altitude(m)": 624176.5763949335,
        "Argument of Periapsis(deg)": 0.0009377051321966765,
        "Eccentricity": 0.0,
        "Inclination(deg)": 60.0,
        "Latitude(deg)": -57.41727259535939,
        "Longitude(deg)": -149.30755970796776,
        "Mean Anomaly(deg)": 283.76275530915643,
        "RAAN(deg)": 14.996219557742315,
        "Satellite Name": "Test1 83",
        "Satellite Number": 83,
        "Semi-Major Axis(m)": 6980739.136638005,
        "Time(s)": 90
    },
    {
        "Altitude(m)": 624090.1112053925,
        "Argument of Periapsis(deg)": 0.0010418945913296407,
        "Eccentricity": 0.0,
        "Inclination(deg)": 60.0,
        "Latitude(deg)": -57.17815671437804,
        "Longitude(deg)": -148.29798750992688,
        "Mean Anomaly(deg)": 284.3828614546183,
        "RAAN(deg)": 14.995799508602571,
        "Satellite Name": "Test1 83",
        "Satellite Number": 83,
        "Semi-Major Axis(m)": 6980739.136638005,
        "Time(s)": 100
    },
    {
        "Altitude(m)": 624000.1168525298,
        "Argument of Periapsis(deg)": 0.0011460840504626045,
        "Eccentricity": 0.0,
        "Inclination(deg)": 60.0,
        "Latitude(deg)": -56.93034712166283,
        "Longitude(deg)": -147.30212586159843,
        "Mean Anomaly(deg)": 285.0029676000801,
        "RAAN(deg)": 14.99537945946283,
        "Satellite Name": "Test1 83",
        "Satellite Number": 83,
        "Semi-Major Axis(m)": 6980739.136638005,
        "Time(s)": 110
    },
    {
        "Altitude(m)": 623906.6286799145,
        "Argument of Periapsis(deg)": 0.0012502735095955685,
        "Eccentricity": 0.0,
        "Inclination(deg)": 60.0,
        "Latitude(deg)": -56.67403771857017,
        "Longitude(deg)": -146.3201388185518,
        "Mean Anomaly(deg)": 285.623073745542,
        "RAAN(deg)": 14.994959410323089,
        "Satellite Name": "Test1 83",
        "Satellite Number": 83,
        "Semi-Major Axis(m)": 6980739.136638005,
        "Time(s)": 120
    },
    {
        "Altitude(m)": 623809.6833952734,
        "Argument of Periapsis(deg)": 0.0013544629687285324,
        "Eccentricity": 0.0,
        "Inclination(deg)": 60.0,
        "Latitude(deg)": -56.40942305672795,
        "Longitude(deg)": -145.3521565241068,
        "Mean Anomaly(deg)": 286.24317989100376,
        "RAAN(deg)": 14.994539361183342,
        "Satellite Name": "Test1 83",
        "Satellite Number": 83,
        "Semi-Major Axis(m)": 6980739.136638005,
        "Time(s)": 130
    },
    {
        "Altitude(m)": 623709.3190549564,
        "Argument of Periapsis(deg)": 0.0014586524278614966,
        "Eccentricity": 0.0,
        "Inclination(deg)": 60.0,
        "Latitude(deg)": -56.136697832928725,
        "Longitude(deg)": -144.39827772065456,
        "Mean Anomaly(deg)": 286.86328603646564,
        "RAAN(deg)": 14.994119312043603,
        "Satellite Name": "Test1 83",
        "Satellite Number": 83,
        "Semi-Major Axis(m)": 6980739.136638005,
        "Time(s)": 140
    },
    {
        "Altitude(m)": 623605.5750478108,
        "Argument of Periapsis(deg)": 0.0015628418869944607,
        "Eccentricity": 0.0,
        "Inclination(deg)": 60.0,
        "Latitude(deg)": -55.856056417771256,
        "Longitude(deg)": -143.4585708251967,
        "Mean Anomaly(deg)": 287.48339218192746,
        "RAAN(deg)": 14.993699262903858,
        "Satellite Name": "Test1 83",
        "Satellite Number": 83,
        "Semi-Major Axis(m)": 6980739.136638005,
        "Time(s)": 150
    },
    {
        "Altitude(m)": 623498.4920784904,
        "Argument of Periapsis(deg)": 0.0016670313461274247,
        "Eccentricity": 0.0,
        "Inclination(deg)": 60.0,
        "Latitude(deg)": -55.56769241857719,
        "Longitude(deg)": -142.53307506111852,
        "Mean Anomaly(deg)": 288.1034983273893,
        "RAAN(deg)": 14.993279213764117,
        "Satellite Name": "Test1 83",
        "Satellite Number": 83,
        "Semi-Major Axis(m)": 6980739.136638005,
        "Time(s)": 160
    },
    {
        "Altitude(m)": 623388.112150198,
        "Argument of Periapsis(deg)": 0.0017712208052603888,
        "Eccentricity": 0.0,
        "Inclination(deg)": 60.0,
        "Latitude(deg)": -55.27179827670945,
        "Longitude(deg)": -141.62180313973454,
        "Mean Anomaly(deg)": 288.7236044728511,
        "RAAN(deg)": 14.992859164624372,
        "Satellite Name": "Test1 83",
        "Satellite Number": 83,
        "Semi-Major Axis(m)": 6980739.136638005,
        "Time(s)": 170
    },
    {
        "Altitude(m)": 623274.4785468588,
        "Argument of Periapsis(deg)": 0.001875410264393353,
        "Eccentricity": 0.0,
        "Inclination(deg)": 60.0,
        "Latitude(deg)": -54.96856489907164,
        "Longitude(deg)": -140.72474244816237,
        "Mean Anomaly(deg)": 289.3437106183129,
        "RAAN(deg)": 14.99243911548463,
        "Satellite Name": "Test1 83",
        "Satellite Number": 83,
        "Semi-Major Axis(m)": 6980739.136638005,
        "Time(s)": 180
    },
    {
        "Altitude(m)": 623157.6358147458,
        "Argument of Periapsis(deg)": 0.0019795997235263173,
        "Eccentricity": 0.0,
        "Inclination(deg)": 60.0,
        "Latitude(deg)": -54.65818132324946,
        "Longitude(deg)": -139.8418562404293,
        "Mean Anomaly(deg)": 289.96381676377473,
        "RAAN(deg)": 14.992019066344888,
        "Satellite Name": "Test1 83",
        "Satellite Number": 83,
        "Semi-Major Axis(m)": 6980739.136638005,
        "Time(s)": 190
    }
]